NORAD_CAT_ID,OBJECT_NAME,OBJECT_TYPE,EPOCH,MEAN_MOTION,ECCENTRICITY,INCLINATION,RA_OF_ASC_NODE,ARG_OF_PERICENTER,MEAN_ANOMALY,BSTAR,MEAN_MOTION_DOT,MEAN_MOTION_DDOT,TLE_LINE0,TLE_LINE1,TLE_LINE2,SEMIMAJOR_AXIS,PERIOD,APOGEE,PERIGEE,DECAYED
50170.0,STARLINK-3245,PAYLOAD,2023-10-30 20:19:19,15.08842826,0.0001386,53.2135,153.5959,83.4749,276.64,0.00041864,6.381e-05,0.0,0 STARLINK-3245,1 50170U 21125Q   23303.84675899  .00006381  00000-0  41864-3 0  9995,2 50170  53.2135 153.5959 0001386  83.4749 276.6400 15.08842826106156,6917.872,95.437,540.696,538.778,0.0
50170.0,STARLINK-3245,PAYLOAD,2023-10-30 21:54:43,15.0884374,0.0001456,53.2146,153.2969,91.8609,268.255,0.00043842,6.697e-05,0.0,0 STARLINK-3245,1 50170U 21125Q   23303.91299872  .00006697  00000-0  43842-3 0  9994,2 50170  53.2146 153.2969 0001456  91.8609 268.2550 15.08843740106645,6917.869,95.437,540.741,538.727,0.0
50170.0,STARLINK-3245,PAYLOAD,2023-10-31 07:27:02,15.08839137,0.0001524,53.2135,151.514,86.5096,273.607,0.00041137,6.265e-05,0.0,0 STARLINK-3245,1 50170U 21125Q   23304.31044097  .00006265  00000-0  41137-3 0  9992,2 50170  53.2135 151.5140 0001524  86.5096 273.6070 15.08839137106228,6917.883,95.438,540.802,538.694,0.0
50170.0,STARLINK-3245,PAYLOAD,2023-10-31 20:10:06,15.08850838,0.0001481,53.2143,149.1341,88.3942,271.722,0.00056706,8.751e-05,0.0,0 STARLINK-3245,1 50170U 21125Q   23304.84035818  .00008751  00000-0  56706-3 0  9991,2 50170  53.2143 149.1341 0001481  88.3942 271.7220 15.08850838106783,6917.847,95.437,540.737,538.688,0.0
50170.0,STARLINK-3245,PAYLOAD,2023-11-01 07:17:48,15.08847228,0.0001473,53.2143,147.0522,86.23,273.886,0.00029903,4.475e-05,0.0,0 STARLINK-3245,1 50170U 21125Q   23305.30403735  .00004475  00000-0  29903-3 0  9998,2 50170  53.2143 147.0522 0001473  86.2300 273.8860 15.08847228106857,6917.858,95.437,540.742,538.704,0.0
50170.0,STARLINK-3245,PAYLOAD,2023-11-01 20:00:53,15.0884532,0.0001498,53.2153,144.6723,92.1102,268.0062,0.00017868,2.557e-05,0.0,0 STARLINK-3245,1 50170U 21125Q   23305.83395653  .00002557  00000-0  17868-3 0  9991,2 50170  53.2153 144.6723 0001498  92.1102 268.0062 15.08845320106454,6917.864,95.437,540.765,538.693,0.0
50170.0,STARLINK-3245,PAYLOAD,2023-11-02 13:30:08,15.08838796,0.0001556,53.2153,141.4003,95.9047,264.2123,-2.3384e-05,-6.6e-06,0.0,0 STARLINK-3245,1 50170U 21125Q   23306.56259814 -.00000660  00000-0 -23384-4 0  9996,2 50170  53.2153 141.4003 0001556  95.9047 264.2123 15.08838796106561,6917.884,95.438,540.825,538.673,0.0
50170.0,STARLINK-3245,PAYLOAD,2023-11-02 19:51:41,15.08841866,0.0001449,53.2164,140.2119,93.7615,266.3543,3.0301e-06,-2.4e-06,0.0,0 STARLINK-3245,1 50170U 21125Q   23306.82755893 -.00000240  00000-0  30301-5 0  9994,2 50170  53.2164 140.2119 0001449  93.7615 266.3543 15.08841866107085,6917.875,95.437,540.742,538.737,0.0
50170.0,STARLINK-3245,PAYLOAD,2023-11-03 13:20:55,15.08835975,0.000136,53.2156,136.9425,94.0665,266.0482,2.7795e-05,1.54e-06,0.0,0 STARLINK-3245,1 50170U 21125Q   23307.55620191  .00000154  00000-0  27795-4 0  9992,2 50170  53.2156 136.9425 0001360  94.0665 266.0482 15.08835975107194,6917.893,95.438,540.699,538.817,0.0
50170.0,STARLINK-3245,PAYLOAD,2023-11-03 19:42:28,15.08842687,0.0001314,53.2159,135.7534,89.3242,270.79,4.067e-05,3.59e-06,0.0,0 STARLINK-3245,1 50170U 21125Q   23307.82115770  .00000359  00000-0  40670-4 0  9998,2 50170  53.2159 135.7534 0001314  89.3242 270.7900 15.08842687106758,6917.872,95.437,540.646,538.828,0.0
50170.0,STARLINK-3245,PAYLOAD,2023-11-03 21:17:51,15.08843015,0.0001313,53.2159,135.456,89.003,271.1113,4.5908e-05,4.43e-06,0.0,0 STARLINK-3245,1 50170U 21125Q   23307.88739747  .00000443  00000-0  45908-4 0  9993,2 50170  53.2159 135.4560 0001313  89.0030 271.1113 15.08843015107247,6917.871,95.437,540.644,538.828,0.0
50170.0,STARLINK-3245,PAYLOAD,2023-11-03 22:53:14,15.08842954,0.0001338,53.2159,135.1584,90.4946,269.62,6.4139e-05,7.33e-06,0.0,0 STARLINK-3245,1 50170U 21125Q   23307.95363721  .00000733  00000-0  64139-4 0  9995,2 50170  53.2159 135.1584 0001338  90.4946 269.6200 15.08842954107250,6917.871,95.437,540.662,538.811,0.0
50170.0,STARLINK-3245,PAYLOAD,2023-11-04 19:33:15,15.0883411,0.000129,53.2159,131.2928,92.2577,267.8563,5.4253e-05,5.76e-06,0.0,0 STARLINK-3245,1 50170U 21125Q   23308.81476630  .00000576  00000-0  54253-4 0  9996,2 50170  53.2159 131.2928 0001290  92.2577 267.8563 15.08834110106904,6917.898,95.438,540.656,538.871,0.0
50170.0,STARLINK-3245,PAYLOAD,2023-11-05 05:05:34,15.08842822,0.0001305,53.216,129.5085,92.2132,267.9009,0.0001008,1.317e-05,0.0,0 STARLINK-3245,1 50170U 21125Q   23309.21220090  .00001317  00000-0  10080-3 0  9991,2 50170  53.2160 129.5085 0001305  92.2132 267.9009 15.08842822106965,6917.872,95.437,540.64,538.834,0.0
50170.0,STARLINK-3245,PAYLOAD,2023-11-05 22:34:48,15.08858316,0.0001417,53.2152,126.2372,93.4133,266.7021,0.00034793,5.256e-05,0.0,0 STARLINK-3245,1 50170U 21125Q   23309.94083344  .00005256  00000-0  34793-3 0  9993,2 50170  53.2152 126.2372 0001417  93.4133 266.7021 15.08858316107559,6917.824,95.436,540.67,538.709,0.0
50170.0,STARLINK-3245,PAYLOAD,2023-11-06 11:17:53,15.08853547,0.0001591,53.2146,123.859,84.1436,275.9738,0.00024408,3.6e-05,0.0,0 STARLINK-3245,1 50170U 21125Q   23310.47075402  .00003600  00000-0  24408-3 0  9992,2 50170  53.2146 123.8590 0001591  84.1436 275.9738 15.08853547107157,6917.839,95.437,540.805,538.603,0.0
50170.0,STARLINK-3245,PAYLOAD,2023-11-06 19:14:48,15.08850119,0.0001321,53.2147,122.3718,83.1258,276.9884,0.00013397,1.845e-05,0.0,0 STARLINK-3245,1 50170U 21125Q   23310.80195245  .00001845  00000-0  13397-3 0  9991,2 50170  53.2147 122.3718 0001321  83.1258 276.9884 15.08850119107689,6917.849,95.437,540.628,538.801,0.0
50170.0,STARLINK-3245,PAYLOAD,2023-11-07 11:08:40,15.08834511,0.0001465,53.2138,119.4004,88.3678,271.7482,-0.00010956,-2.031e-05,0.0,0 STARLINK-3245,1 50170U 21125Q   23311.46436108 -.00002031  00000-0 -10956-3 0  9998,2 50170  53.2138 119.4004 0001465  88.3678 271.7482 15.08834511107300,6917.897,95.438,540.776,538.749,0.0
50170.0,STARLINK-3245,PAYLOAD,2023-11-07 17:30:13,15.08826706,0.0001297,53.2158,118.2086,95.6843,264.4297,-0.00017207,-3.024e-05,0.0,0 STARLINK-3245,1 50170U 21125Q   23311.72932651 -.00003024  00000-0 -17207-3 0  9990,2 50170  53.2158 118.2086 0001297  95.6843 264.4297 15.08826706107341,6917.921,95.438,540.683,538.889,0.0
50170.0,STARLINK-3245,PAYLOAD,2023-11-08 10:59:28,15.08836232,0.0001485,53.2156,114.9375,88.8223,271.2939,3.591e-05,2.84e-06,0.0,0 STARLINK-3245,1 50170U 21125Q   23312.45796677  .00000284  00000-0  35910-4 0  9992,2 50170  53.2156 114.9375 0001485  88.8223 271.2939 15.08836232107454,6917.892,95.438,540.784,538.73,0.0
50170.0,STARLINK-3245,PAYLOAD,2023-11-08 17:21:00,15.08841706,0.0001294,53.2154,113.7471,90.463,269.651,0.00024388,3.596e-05,0.0,0 STARLINK-3245,1 50170U 21125Q   23312.72292563  .00003596  00000-0  24388-3 0  9992,2 50170  53.2154 113.7471 0001294  90.4630 269.6510 15.08841706107970,6917.875,95.437,540.635,538.845,0.0
50170.0,STARLINK-3245,PAYLOAD,2023-11-09 14:01:01,15.08838703,0.0001351,53.2153,109.8832,88.8025,271.3122,0.00032734,4.925e-05,0.0,0 STARLINK-3245,1 50170U 21125Q   23313.58405060  .00004925  00000-0  32734-3 0  9996,2 50170  53.2153 109.8832 0001351  88.8025 271.3122 15.08838703108107,6917.884,95.438,540.684,538.815,0.0
50170.0,STARLINK-3245,PAYLOAD,2023-11-09 17:11:48,15.08842679,0.0001326,53.2155,109.2878,92.4232,267.6912,0.00036061,5.456e-05,0.0,0 STARLINK-3245,1 50170U 21125Q   23313.71652894  .00005456  00000-0  36061-3 0  9997,2 50170  53.2155 109.2878 0001326  92.4232 267.6912 15.08842679107646,6917.872,95.437,540.655,538.82,0.0
50170.0,STARLINK-3245,PAYLOAD,2023-11-10 13:51:49,15.08837302,0.0001189,53.2154,105.4204,98.4662,261.6464,0.00026561,3.942e-05,0.0,0 STARLINK-3245,1 50170U 21125Q   23314.57765061  .00003942  00000-0  26561-3 0  9995,2 50170  53.2154 105.4204 0001189  98.4662 261.6464 15.08837302108257,6917.889,95.438,540.576,538.931,0.0
50170.0,STARLINK-3245,PAYLOAD,2023-11-10 17:02:34,15.08844457,0.0001354,53.2152,104.8257,92.5293,267.5854,0.00013361,1.839e-05,0.0,0 STARLINK-3245,1 50170U 21125Q   23314.71012677  .00001839  00000-0  13361-3 0  9996,2 50170  53.2152 104.8257 0001354  92.5293 267.5854 15.08844457107790,6917.867,95.437,540.668,538.795,0.0
50170.0,STARLINK-3245,PAYLOAD,2023-11-11 10:31:49,15.08840897,0.0001244,53.2156,101.5545,90.1752,269.9383,3.1598e-05,2.15e-06,0.0,0 STARLINK-3245,1 50170U 21125Q   23315.43876888  .00000215  00000-0  31598-4 0  9998,2 50170  53.2156 101.5545 0001244  90.1752 269.9383 15.08840897107900,6917.878,95.437,540.603,538.882,0.0
50170.0,STARLINK-3245,PAYLOAD,2023-11-11 13:42:35,15.08841929,0.0001224,53.2155,100.96,88.6332,271.4801,4.1708e-05,3.76e-06,0.0,0 STARLINK-3245,1 50170U 21125Q   23315.57124815  .00000376  00000-0  41708-4 0  9991,2 50170  53.2155 100.9600 0001224  88.6332 271.4801 15.08841929108404,6917.874,95.437,540.586,538.893,0.0
50170.0,STARLINK-3245,PAYLOAD,2023-11-11 16:53:21,15.08845001,0.000114,53.2158,100.3657,88.7594,271.3528,8.6282e-05,1.086e-05,0.0,0 STARLINK-3245,1 50170U 21125Q   23315.70372631  .00001086  00000-0  86282-4 0  9992,2 50170  53.2158 100.3657 0001140  88.7594 271.3528 15.08845001108423,6917.865,95.437,540.519,538.941,0.0
50170.0,STARLINK-3245,PAYLOAD,2023-11-12 13:33:23,15.08832988,0.0001118,53.2156,96.5002,87.2085,272.9035,-2.6373e-05,-7.07e-06,0.0,0 STARLINK-3245,1 50170U 21125Q   23316.56485266 -.00000707  00000-0 -26373-4 0  9992,2 50170  53.2156  96.5002 0001118  87.2085 272.9035 15.08832988108559,6917.902,95.438,540.54,538.993,0.0
50170.0,STARLINK-3245,PAYLOAD,2023-11-12 16:44:09,15.0883812,9.94e-05,53.2164,95.9067,83.5599,276.5506,7.667e-05,9.33e-06,0.0,0 STARLINK-3245,1 50170U 21125Q   23316.69733295  .00000933  00000-0  76670-4 0  9998,2 50170  53.2164  95.9067 0000994  83.5599 276.5506 15.08838120108098,6917.886,95.438,540.439,539.063,0.0
